INTELSAT 33E DEB        
1 64406U 16053AL  26085.76893946 -.00000324  00000+0  00000+0 0  9996
2 64406   1.2607  69.0263 0127824  43.5032 318.2821  0.98889497  5029
INTELSAT 33E DEB        
1 64408U 16053AN  26094.91896187 -.00000249  00000+0  00000+0 0  9991
2 64408   2.2139  97.5233 1815974 290.4204  51.4669  1.03208544  5324
INTELSAT 33E DEB        
1 64409U 16053AP  26094.79643144 -.00000262  00000+0  00000+0 0  9996
2 64409   1.3361  79.2170 0052587  77.4054 283.8981  0.99471138  5139
INTELSAT 33E DEB        
1 64410U 16053AQ  26093.95085900 -.00000053  00000+0  00000+0 0  9993
2 64410   1.2686  69.8057 0066391 350.4874  10.0734  0.99986541  5147
COSMOS 2589             
1 64467U 25131A   26093.55369897 -.00000338  00000+0  00000+0 0  9994
2 64467   0.1269 354.5994 0444973 114.2923  17.2415  1.00284936  2813
CHINASAT 9C             
1 64470U 25132A   26095.12753198 -.00000246  00000+0  00000+0 0  9993
2 64470   0.0387  93.8453 0002828 281.0900 316.6164  1.00271451  3419
COSMOS 2590             
1 64527U 25131D   26093.48890209 -.00000304  00000+0  00000+0 0  9992
2 64527   0.1739  51.0154 3657809  48.4426  14.9513  1.00257222  2868
MTG-S1                  
1 64723U 25143A   26095.10251894 -.00000031  00000+0  00000+0 0  9992
2 64723   0.6196 332.4344 0002059 359.3781 254.9879  1.00273594  2682
DROR 1                  
1 64784U 25148A   26095.24499655 -.00000033  00000+0  00000+0 0  9990
2 64784   0.0509  68.6357 0003616 296.2543 272.8453  1.00271836  2569
SHIYAN-29               
1 65486U 25196A   26095.00538276 -.00000276  00000+0  00000+0 0  9999
2 65486  28.7451  19.4581 0009615 177.4148  93.8716  1.00279347  2143
NUSANTARA LIMA (NUSANT*)
1 65588U 25205A   26095.05424542 -.00000357  00000+0  00000+0 0  9998
2 65588   0.0433  43.5336 0000949  12.2160 270.0094  1.00272964  1983
TJS-20                  
1 66142U 25238A   26095.18239307  .00000021  00000+0  00000+0 0  9995
2 66142   5.6327 299.8224 0008472 103.8939 277.7940  1.00271366  1603
SPAINSAT NG II          
1 66144U 25239A   26094.40344725 -.00000112  00000+0  00000+0 0  9995
2 66144  14.4427 230.9098 7641582 204.8709  79.6175  0.96784638  1635
CMS-03 (GSAT-7R)        
1 66311U 25249B   26095.18901264 -.00000076  00000+0  00000+0 0  9994
2 66311   0.0477 264.7517 0003883 101.8949 328.8996  1.00272319  1611
VIASAT-3 F2             
1 66454U 25261A   26095.16919711 -.00000233  00000+0  00000+0 0  9995
2 66454   0.0392 270.4026 0002741 172.6931  92.3082  1.00272389  2058
SHIJIAN-28 (SJ-28)      
1 66549U 25277A   26095.26900332 -.00000364  00000+0  00000+0 0  9992
2 66549   4.7268 273.2491 0000071 175.4790 318.5316  1.00273383  1429
TJS-21                  
1 66586U 25269A   26084.90842167  .00001086  00000+0  00000+0 0  9995
2 66586  63.3110 151.4086 6825268 269.3056  18.6838  2.00654387  2506
